*******************************************************************************
Ephemeris / WWW_USER Mon Mar 24 08:33:26 2025 Pasadena, USA      / Horizons    
*******************************************************************************
Target body name: (2018 WD2)                      {source: JPL#7}
Center body name: Earth (399)                     {source: DE441}
Center-site name: Mauna Kea
*******************************************************************************
Start time      : A.D. 2018-Dec-31 04:03:00.0000 UT      
Stop  time      : A.D. 2018-Dec-31 16:46:00.0000 UT      
Step-size       : 1 minutes
*******************************************************************************
Target pole/equ : undefined
Target radii    : undefined                                                    
Center geodetic : 204.5278, 19.8260847, 4.21024   {E-lon(deg),Lat(deg),Alt(km)}
Center cylindric: 204.5278, 6006.35451, 2151.0229 {E-lon(deg),Dxy(km),Dz(km)}
Center pole/equ : ITRF93                          {East-longitude positive}
Center radii    : 6378.137, 6378.137, 6356.752 km {Equator_a, b, pole_c}       
Target primary  : Sun
Vis. interferer : MOON (R_eq= 1737.400) km        {source: DE441}
Rel. light bend : Sun                             {source: DE441}
Rel. lght bnd GM: 1.3271E+11 km^3/s^2                                          
Small-body perts: Yes                             {source: SB441-N16}
Atmos refraction: NO (AIRLESS)
RA format       : HMS
Time format     : CAL 
Calendar mode   : Mixed Julian/Gregorian
RTS-only print  : NO       
EOP file        : eop.250321.p250617                                           
EOP coverage    : DATA-BASED 1962-JAN-20 TO 2025-MAR-21. PREDICTS-> 2025-JUN-16
Units conversion: 1 au= 149597870.700 km, c= 299792.458 km/s, 1 day= 86400.0 s 
Table cut-offs 1: Elevation (-90.0deg=NO ),Airmass (>38.000=NO), Daylight (YES)
Table cut-offs 2: Solar elongation (  0.0,180.0=NO ),Local Hour Angle( 0.0=NO )
Table cut-offs 3: RA/DEC angular rate (     0.0=NO )                           
*******************************************************************************
Initial IAU76/J2000 heliocentric ecliptic osculating elements (au, days, deg.):
  EPOCH=  2458442.5 ! 2018-Nov-20.00 (TDB)         Residual RMS= .32422        
   EC= .524986067713519    QR= .9778174985080528   TP= 2458471.2675125618      
   OM= 251.0855257113189   W=  198.8561547827716   IN= 2.860917524648221       
  Equivalent ICRF heliocentric cartesian coordinates (au, au/d):
   X= 5.933978759455335E-01  Y= 7.796199626272187E-01  Z= 3.534710331364960E-01
  VX=-1.894544763705440E-02 VY= 7.774789113426014E-03 VZ= 2.252803318104249E-03
Asteroid physical parameters (km, seconds, rotational period in hours):        
   GM= n.a.                RAD= n.a.               ROTPER= n.a.                
   H= 26.2                 G= .150                 B-V= n.a.                   
                           ALBEDO= n.a.            STYP= n.a.                  
*******************************************************************************
 Date__(UT)__HR:MN     R.A._________(ICRF)_________DEC
******************************************************
$$SOE
 2018-Dec-31 08:09     12 11 42.179085 -17 00 38.53959
 2018-Dec-31 08:10     12 11 42.221904 -17 00 38.76665
 2018-Dec-31 08:11     12 11 42.264633 -17 00 38.99388
 2018-Dec-31 08:12     12 11 42.307270 -17 00 39.22128
 2018-Dec-31 08:13     12 11 42.349817 -17 00 39.44886
 2018-Dec-31 08:14     12 11 42.392271 -17 00 39.67660
 2018-Dec-31 08:15     12 11 42.434635 -17 00 39.90450
 2018-Dec-31 08:16     12 11 42.476907 -17 00 40.13258
 2018-Dec-31 08:17     12 11 42.519086 -17 00 40.36081
 2018-Dec-31 08:18     12 11 42.561174 -17 00 40.58921
 2018-Dec-31 08:19     12 11 42.603169 -17 00 40.81776
 2018-Dec-31 08:20     12 11 42.645073 -17 00 41.04648
 2018-Dec-31 08:21     12 11 42.686883 -17 00 41.27534
 2018-Dec-31 08:22     12 11 42.728601 -17 00 41.50437
 2018-Dec-31 08:23     12 11 42.770226 -17 00 41.73355
 2018-Dec-31 08:24     12 11 42.811757 -17 00 41.96288
 2018-Dec-31 08:25     12 11 42.853196 -17 00 42.19235
 2018-Dec-31 08:26     12 11 42.894541 -17 00 42.42198
 2018-Dec-31 08:27     12 11 42.935793 -17 00 42.65175
 2018-Dec-31 08:28     12 11 42.976951 -17 00 42.88167
 2018-Dec-31 08:29     12 11 43.018015 -17 00 43.11173
 2018-Dec-31 08:30     12 11 43.058984 -17 00 43.34193
 2018-Dec-31 08:31     12 11 43.099860 -17 00 43.57227
 2018-Dec-31 08:32     12 11 43.140642 -17 00 43.80274
 2018-Dec-31 08:33     12 11 43.181329 -17 00 44.03336
 2018-Dec-31 08:34     12 11 43.221921 -17 00 44.26411
 2018-Dec-31 08:35     12 11 43.262419 -17 00 44.49499
 2018-Dec-31 08:36     12 11 43.302821 -17 00 44.72600
 2018-Dec-31 08:37     12 11 43.343129 -17 00 44.95714
 2018-Dec-31 08:38     12 11 43.383341 -17 00 45.18840
 2018-Dec-31 08:39     12 11 43.423458 -17 00 45.41980
 2018-Dec-31 08:40     12 11 43.463480 -17 00 45.65131
 2018-Dec-31 08:41     12 11 43.503406 -17 00 45.88295
 2018-Dec-31 08:42     12 11 43.543236 -17 00 46.11471
 2018-Dec-31 08:43     12 11 43.582971 -17 00 46.34659
 2018-Dec-31 08:44     12 11 43.622609 -17 00 46.57859
 2018-Dec-31 08:45     12 11 43.662152 -17 00 46.81070
 2018-Dec-31 08:46     12 11 43.701598 -17 00 47.04292
 2018-Dec-31 08:47     12 11 43.740947 -17 00 47.27526
 2018-Dec-31 08:48     12 11 43.780201 -17 00 47.50770
 2018-Dec-31 08:49     12 11 43.819357 -17 00 47.74026
 2018-Dec-31 08:50     12 11 43.858417 -17 00 47.97292
 2018-Dec-31 08:51     12 11 43.897380 -17 00 48.20568
 2018-Dec-31 08:52     12 11 43.936246 -17 00 48.43855
 2018-Dec-31 08:53     12 11 43.975015 -17 00 48.67152
 2018-Dec-31 08:54     12 11 44.013687 -17 00 48.90459
 2018-Dec-31 08:55     12 11 44.052261 -17 00 49.13776
 2018-Dec-31 08:56     12 11 44.090739 -17 00 49.37102
 2018-Dec-31 08:57     12 11 44.129118 -17 00 49.60438
 2018-Dec-31 08:58     12 11 44.167400 -17 00 49.83783
 2018-Dec-31 08:59     12 11 44.205584 -17 00 50.07137
 2018-Dec-31 09:00     12 11 44.243671 -17 00 50.30500
 2018-Dec-31 09:01     12 11 44.281659 -17 00 50.53871
 2018-Dec-31 09:02     12 11 44.319550 -17 00 50.77251
 2018-Dec-31 09:03     12 11 44.357342 -17 00 51.00640
 2018-Dec-31 09:04     12 11 44.395037 -17 00 51.24037
 2018-Dec-31 09:05     12 11 44.432633 -17 00 51.47441
 2018-Dec-31 09:06     12 11 44.470130 -17 00 51.70854
 2018-Dec-31 09:07     12 11 44.507529 -17 00 51.94274
 2018-Dec-31 09:08     12 11 44.544830 -17 00 52.17702
 2018-Dec-31 09:09     12 11 44.582032 -17 00 52.41137
 2018-Dec-31 09:10     12 11 44.619135 -17 00 52.64579
 2018-Dec-31 09:11     12 11 44.656140 -17 00 52.88028
 2018-Dec-31 09:12     12 11 44.693045 -17 00 53.11484
 2018-Dec-31 09:13     12 11 44.729852 -17 00 53.34946
 2018-Dec-31 09:14     12 11 44.766560 -17 00 53.58415
 2018-Dec-31 09:15     12 11 44.803168 -17 00 53.81890
 2018-Dec-31 09:16     12 11 44.839678 -17 00 54.05370
 2018-Dec-31 09:17     12 11 44.876088 -17 00 54.28857
 2018-Dec-31 09:18     12 11 44.912399 -17 00 54.52350
 2018-Dec-31 09:19     12 11 44.948610 -17 00 54.75848
 2018-Dec-31 09:20     12 11 44.984722 -17 00 54.99351
 2018-Dec-31 09:21     12 11 45.020735 -17 00 55.22860
 2018-Dec-31 09:22     12 11 45.056648 -17 00 55.46373
 2018-Dec-31 09:23     12 11 45.092462 -17 00 55.69891
 2018-Dec-31 09:24     12 11 45.128175 -17 00 55.93414
 2018-Dec-31 09:25     12 11 45.163789 -17 00 56.16941
 2018-Dec-31 09:26     12 11 45.199304 -17 00 56.40473
 2018-Dec-31 09:27     12 11 45.234718 -17 00 56.64008
 2018-Dec-31 09:28     12 11 45.270033 -17 00 56.87548
 2018-Dec-31 09:29     12 11 45.305248 -17 00 57.11091
 2018-Dec-31 09:30     12 11 45.340363 -17 00 57.34637
 2018-Dec-31 09:31     12 11 45.375378 -17 00 57.58187
 2018-Dec-31 09:32     12 11 45.410292 -17 00 57.81740
 2018-Dec-31 09:33     12 11 45.445107 -17 00 58.05296
 2018-Dec-31 09:34     12 11 45.479822 -17 00 58.28855
 2018-Dec-31 09:35     12 11 45.514436 -17 00 58.52417
 2018-Dec-31 09:36     12 11 45.548951 -17 00 58.75981
 2018-Dec-31 09:37     12 11 45.583365 -17 00 58.99547
 2018-Dec-31 09:38     12 11 45.617679 -17 00 59.23115
 2018-Dec-31 09:39     12 11 45.651892 -17 00 59.46685
 2018-Dec-31 09:40     12 11 45.686006 -17 00 59.70257
 2018-Dec-31 09:41     12 11 45.720019 -17 00 59.93830
 2018-Dec-31 09:42     12 11 45.753931 -17 01 00.17405
 2018-Dec-31 09:43     12 11 45.787744 -17 01 00.40980
 2018-Dec-31 09:44     12 11 45.821456 -17 01 00.64557
 2018-Dec-31 09:45     12 11 45.855067 -17 01 00.88135
 2018-Dec-31 09:46     12 11 45.888579 -17 01 01.11713
 2018-Dec-31 09:47     12 11 45.921989 -17 01 01.35291
 2018-Dec-31 09:48     12 11 45.955300 -17 01 01.58870
 2018-Dec-31 09:49     12 11 45.988510 -17 01 01.82449
 2018-Dec-31 09:50     12 11 46.021619 -17 01 02.06028
 2018-Dec-31 09:51     12 11 46.054628 -17 01 02.29606
 2018-Dec-31 09:52     12 11 46.087537 -17 01 02.53184
 2018-Dec-31 09:53     12 11 46.120345 -17 01 02.76762
 2018-Dec-31 09:54     12 11 46.153053 -17 01 03.00338
 2018-Dec-31 09:55     12 11 46.185660 -17 01 03.23913
 2018-Dec-31 09:56     12 11 46.218167 -17 01 03.47488
 2018-Dec-31 09:57     12 11 46.250574 -17 01 03.71061
 2018-Dec-31 09:58     12 11 46.282880 -17 01 03.94632
 2018-Dec-31 09:59     12 11 46.315085 -17 01 04.18201
 2018-Dec-31 10:00     12 11 46.347190 -17 01 04.41769
 2018-Dec-31 10:01     12 11 46.379195 -17 01 04.65334
 2018-Dec-31 10:02     12 11 46.411100 -17 01 04.88898
 2018-Dec-31 10:03     12 11 46.442904 -17 01 05.12458
 2018-Dec-31 10:04     12 11 46.474608 -17 01 05.36016
 2018-Dec-31 10:05     12 11 46.506211 -17 01 05.59571
 2018-Dec-31 10:06     12 11 46.537714 -17 01 05.83124
 2018-Dec-31 10:07     12 11 46.569117 -17 01 06.06673
 2018-Dec-31 10:08     12 11 46.600420 -17 01 06.30218
 2018-Dec-31 10:09     12 11 46.631622 -17 01 06.53760
 2018-Dec-31 10:10  r  12 11 46.662725 -17 01 06.77298
 2018-Dec-31 10:11     12 11 46.693727 -17 01 07.00833
